0 XM-3
1 28626U 05008A   13282.54221877 -.00000220  00000-0  10000-3 0  4689
2 28626 000.0226 343.5948 0000137 011.5107 133.3572 01.00270922 31605
0 XM-3
1 28626U 05008A   13282.98360325  .00000000  00000-0  10000-3 0  4695
2 28626 000.0217 354.1045 0000653 245.9509 047.7085 01.00266648 30249
0 XM-3
1 28626U 05008A   13285.44436715 -.00000228  00000-0  10000-3 0  4699
2 28626 000.0221 344.7862 0000128 005.9774 105.3176 01.00270225 31633
0 XM-3
1 28626U 05008A   13287.29968683 -.00000231  00000-0  10000-3 0  4704
2 28626 000.0219 347.0257 0000220 103.1942 315.5960 01.00269815 31656
0 XM-3
1 28626U 05008A   13290.35141668 -.00000228  00000-0  10000-3 0  4718
2 28626 000.0250 005.2075 0000322 103.7981 318.4394 01.00271002 31681
0 XM-3
1 28626U 05008A   13292.41792833 -.00000224  00000-0  10000-3 0  4720
2 28626 000.0204 347.5571 0000427 273.6593 192.2239 01.00272388 31702
0 XM-3
1 28626U 05008A   13294.33490355 -.00000220  00000-0  10000-3 0  4734
2 28626 000.0205 351.8639 0000499 275.8972 157.6818 01.00272066 31723
0 XM-3
1 28626U 05008A   13296.21526421 -.00000217  00000-0  10000-3 0  4744
2 28626 000.0218 004.7533 0000507 177.1642 202.3111 01.00271332 31743
